[
    {
        "Altitude(m)": 554242.207193614,
        "Argument of Periapsis(deg)": 0.0,
        "Eccentricity": 0.0,
        "Inclination(deg)": 53.0,
        "Latitude(deg)": -0.07940518266548666,
        "Longitude(deg)": -35.02873352225947,
        "Mean Anomaly(deg)": 0.0,
        "RAAN(deg)": 65.0,
        "Satellite Name": "Starlink Shell 1 286",
        "Satellite Number": 286,
        "Semi-Major Axis(m)": 6931778.249405717,
        "Time(s)": 0
    },
    {
        "Altitude(m)": 554177.7909944197,
        "Argument of Periapsis(deg)": 0.00034857847951123687,
        "Eccentricity": 0.0,
        "Inclination(deg)": 53.0,
        "Latitude(deg)": 0.4245381304470426,
        "Longitude(deg)": -34.69335735540967,
        "Mean Anomaly(deg)": 0.6268312035567084,
        "RAAN(deg)": 64.99948122992252,
        "Satellite Name": "Starlink Shell 1 286",
        "Satellite Number": 286,
        "Semi-Major Axis(m)": 6931778.249405717,
        "Time(s)": 10
    },
    {
        "Altitude(m)": 554116.1789059368,
        "Argument of Periapsis(deg)": 0.0006971569590224737,
        "Eccentricity": 0.0,
        "Inclination(deg)": 53.0,
        "Latitude(deg)": 0.928471719901125,
        "Longitude(deg)": -34.35792545789896,
        "Mean Anomaly(deg)": 1.2536624071134295,
        "RAAN(deg)": 64.99896245984506,
        "Satellite Name": "Starlink Shell 1 286",
        "Satellite Number": 286,
        "Semi-Major Axis(m)": 6931778.249405717,
        "Time(s)": 20
    },
    {
        "Altitude(m)": 554057.3771002394,
        "Argument of Periapsis(deg)": 0.0010457354385337105,
        "Eccentricity": 0.0,
        "Inclination(deg)": 53.0,
        "Latitude(deg)": 1.4323726772596888,
        "Longitude(deg)": -34.022380275568,
        "Mean Anomaly(deg)": 1.8804936106701375,
        "RAAN(deg)": 64.99844368976758,
        "Satellite Name": "Starlink Shell 1 286",
        "Satellite Number": 286,
        "Semi-Major Axis(m)": 6931778.249405717,
        "Time(s)": 30
    },
    {
        "Altitude(m)": 554001.39039311,
        "Argument of Periapsis(deg)": 0.0013943139180449475,
        "Eccentricity": 0.0,
        "Inclination(deg)": 53.0,
        "Latitude(deg)": 1.9362180687711184,
        "Longitude(deg)": -33.68666369780014,
        "Mean Anomaly(deg)": 2.507324814226859,
        "RAAN(deg)": 64.9979249196901,
        "Satellite Name": "Starlink Shell 1 286",
        "Satellite Number": 286,
        "Semi-Major Axis(m)": 6931778.249405717,
        "Time(s)": 40
    },
    {
        "Altitude(m)": 553948.2222443881,
        "Argument of Periapsis(deg)": 0.0017428923975561844,
        "Eccentricity": 0.0,
        "Inclination(deg)": 53.0,
        "Latitude(deg)": 2.4399849236548135,
        "Longitude(deg)": -33.350718040846054,
        "Mean Anomaly(deg)": 3.13415601778358,
        "RAAN(deg)": 64.99740614961264,
        "Satellite Name": "Starlink Shell 1 286",
        "Satellite Number": 286,
        "Semi-Major Axis(m)": 6931778.249405717,
        "Time(s)": 50
    },
    {
        "Altitude(m)": 553897.874759007,
        "Argument of Periapsis(deg)": 0.002091470877067421,
        "Eccentricity": 0.0,
        "Inclination(deg)": 53.0,
        "Latitude(deg)": 2.9436502223544956,
        "Longitude(deg)": -33.01448551824876,
        "Mean Anomaly(deg)": 3.7609872213402884,
        "RAAN(deg)": 64.99688737953517,
        "Satellite Name": "Starlink Shell 1 286",
        "Satellite Number": 286,
        "Semi-Major Axis(m)": 6931778.249405717,
        "Time(s)": 60
    },
    {
        "Altitude(m)": 553850.3486887227,
        "Argument of Periapsis(deg)": 0.0024400493565786582,
        "Eccentricity": 0.0,
        "Inclination(deg)": 53.0,
        "Latitude(deg)": 3.4471908847460453,
        "Longitude(deg)": -32.67790771123365,
        "Mean Anomaly(deg)": 4.387818424897009,
        "RAAN(deg)": 64.99636860945769,
        "Satellite Name": "Starlink Shell 1 286",
        "Satellite Number": 286,
        "Semi-Major Axis(m)": 6931778.249405717,
        "Time(s)": 70
    },
    {
        "Altitude(m)": 553805.6434345064,
        "Argument of Periapsis(deg)": 0.002788627836089895,
        "Eccentricity": 0.0,
        "Inclination(deg)": 53.0,
        "Latitude(deg)": 3.9505837582861436,
        "Longitude(deg)": -32.34092655193042,
        "Mean Anomaly(deg)": 5.014649628453718,
        "RAAN(deg)": 64.99584983938023,
        "Satellite Name": "Starlink Shell 1 286",
        "Satellite Number": 286,
        "Semi-Major Axis(m)": 6931778.249405717,
        "Time(s)": 80
    },
    {
        "Altitude(m)": 553763.7570495981,
        "Argument of Periapsis(deg)": 0.0031372063156011316,
        "Eccentricity": 0.0,
        "Inclination(deg)": 53.0,
        "Latitude(deg)": 4.453805606094859,
        "Longitude(deg)": -32.003483793673595,
        "Mean Anomaly(deg)": 5.641480832010439,
        "RAAN(deg)": 64.99533106930275,
        "Satellite Name": "Starlink Shell 1 286",
        "Satellite Number": 286,
        "Semi-Major Axis(m)": 6931778.249405717,
        "Time(s)": 90
    },
    {
        "Altitude(m)": 553724.686243286,
        "Argument of Periapsis(deg)": 0.0034857847951123688,
        "Eccentricity": 0.0,
        "Inclination(deg)": 53.0,
        "Latitude(deg)": 4.956833094958532,
        "Longitude(deg)": -31.665520481246773,
        "Mean Anomaly(deg)": 6.268312035567147,
        "RAAN(deg)": 64.99481229922527,
        "Satellite Name": "Starlink Shell 1 286",
        "Satellite Number": 286,
        "Semi-Major Axis(m)": 6931778.249405717,
        "Time(s)": 100
    },
    {
        "Altitude(m)": 553688.4263852729,
        "Argument of Periapsis(deg)": 0.003834363274623606,
        "Eccentricity": 0.0,
        "Inclination(deg)": 53.0,
        "Latitude(deg)": 5.459642783239469,
        "Longitude(deg)": -31.326977933939354,
        "Mean Anomaly(deg)": 6.895143239123868,
        "RAAN(deg)": 64.99429352914781,
        "Satellite Name": "Starlink Shell 1 286",
        "Satellite Number": 286,
        "Semi-Major Axis(m)": 6931778.249405717,
        "Time(s)": 110
    },
    {
        "Altitude(m)": 553654.9715107874,
        "Argument of Periapsis(deg)": 0.004182941754134842,
        "Eccentricity": 0.0,
        "Inclination(deg)": 53.0,
        "Latitude(deg)": 5.9622111086850405,
        "Longitude(deg)": -30.98779721566172,
        "Mean Anomaly(deg)": 7.521974442680589,
        "RAAN(deg)": 64.99377475907033,
        "Satellite Name": "Starlink Shell 1 286",
        "Satellite Number": 286,
        "Semi-Major Axis(m)": 6931778.249405717,
        "Time(s)": 120
    },
    {
        "Altitude(m)": 553624.3143263222,
        "Argument of Periapsis(deg)": 0.004531520233646079,
        "Eccentricity": 0.0,
        "Inclination(deg)": 53.0,
        "Latitude(deg)": 6.464514376122886,
        "Longitude(deg)": -30.647918604987343,
        "Mean Anomaly(deg)": 8.148805646237298,
        "RAAN(deg)": 64.99325598899286,
        "Satellite Name": "Starlink Shell 1 286",
        "Satellite Number": 286,
        "Semi-Major Axis(m)": 6931778.249405717,
        "Time(s)": 130
    },
    {
        "Altitude(m)": 553596.4462160352,
        "Argument of Periapsis(deg)": 0.0048800987131573164,
        "Eccentricity": 0.0,
        "Inclination(deg)": 53.0,
        "Latitude(deg)": 6.966528745027983,
        "Longitude(deg)": -30.307282577989557,
        "Mean Anomaly(deg)": 8.775636849794019,
        "RAAN(deg)": 64.9927372189154,
        "Satellite Name": "Starlink Shell 1 286",
        "Satellite Number": 286,
        "Semi-Major Axis(m)": 6931778.249405717,
        "Time(s)": 140
    },
    {
        "Altitude(m)": 553571.3572488267,
        "Argument of Periapsis(deg)": 0.005228677192668553,
        "Eccentricity": 0.0,
        "Inclination(deg)": 53.0,
        "Latitude(deg)": 7.468230216954558,
        "Longitude(deg)": -29.96582927812245,
        "Mean Anomaly(deg)": 9.402468053350727,
        "RAAN(deg)": 64.99221844883792,
        "Satellite Name": "Starlink Shell 1 286",
        "Satellite Number": 286,
        "Semi-Major Axis(m)": 6931778.249405717,
        "Time(s)": 150
    },
    {
        "Altitude(m)": 553549.0361860405,
        "Argument of Periapsis(deg)": 0.00557725567217979,
        "Eccentricity": 0.0,
        "Inclination(deg)": 53.0,
        "Latitude(deg)": 7.969594622818907,
        "Longitude(deg)": -29.623497986014875,
        "Mean Anomaly(deg)": 10.029299256907448,
        "RAAN(deg)": 64.99169967876044,
        "Satellite Name": "Starlink Shell 1 286",
        "Satellite Number": 286,
        "Semi-Major Axis(m)": 6931778.249405717,
        "Time(s)": 160
    },
    {
        "Altitude(m)": 553529.470489843,
        "Argument of Periapsis(deg)": 0.0059258341516910265,
        "Eccentricity": 0.0,
        "Inclination(deg)": 53.0,
        "Latitude(deg)": 8.4705976100189,
        "Longitude(deg)": -29.280228102047847,
        "Mean Anomaly(deg)": 10.656130460464157,
        "RAAN(deg)": 64.99118090868298,
        "Satellite Name": "Starlink Shell 1 286",
        "Satellite Number": 286,
        "Semi-Major Axis(m)": 6931778.249405717,
        "Time(s)": 170
    },
    {
        "Altitude(m)": 553512.6463322368,
        "Argument of Periapsis(deg)": 0.006274412631202263,
        "Eccentricity": 0.0,
        "Inclination(deg)": 53.0,
        "Latitude(deg)": 8.971214629383018,
        "Longitude(deg)": -28.935958615966445,
        "Mean Anomaly(deg)": 11.282961664020865,
        "RAAN(deg)": 64.9906621386055,
        "Satellite Name": "Starlink Shell 1 286",
        "Satellite Number": 286,
        "Semi-Major Axis(m)": 6931778.249405717,
        "Time(s)": 180
    }
]